[{"OBJECT_NAME":"SL-8 R/B","OBJECT_ID":"1991-006B","EPOCH":"2026-03-27T17:20:01.419360","MEAN_MOTION":13.77496921,"ECCENTRICITY":0.0021919,"INCLINATION":82.9447,"RA_OF_ASC_NODE":156.6397,"ARG_OF_PERICENTER":348.318,"MEAN_ANOMALY":129.3166,"EPHEMERIS_TYPE":0,"CLASSIFICATION_TYPE":"U","NORAD_CAT_ID":21088,"ELEMENT_SET_NO":999,"REV_AT_EPOCH":76655,"BSTAR":6.4259e-5,"MEAN_MOTION_DOT":7.9e-7,"MEAN_MOTION_DDOT":0},{"OBJECT_NAME":"OKEAN-3","OBJECT_ID":"1991-039A","EPOCH":"2026-03-27T21:33:14.771232","MEAN_MOTION":15.04908206,"ECCENTRICITY":0.0012319,"INCLINATION":82.5165,"RA_OF_ASC_NODE":319.2017,"ARG_OF_PERICENTER":269.3728,"MEAN_ANOMALY":90.6087,"EPHEMERIS_TYPE":0,"CLASSIFICATION_TYPE":"U","NORAD_CAT_ID":21397,"ELEMENT_SET_NO":999,"REV_AT_EPOCH":86777,"BSTAR":0.00014865,"MEAN_MOTION_DOT":2.134e-5,"MEAN_MOTION_DDOT":0},{"OBJECT_NAME":"COSMOS 2151","OBJECT_ID":"1991-042A","EPOCH":"2026-03-27T19:49:53.043168","MEAN_MOTION":15.00180388,"ECCENTRICITY":0.0012514,"INCLINATION":82.4944,"RA_OF_ASC_NODE":66.1754,"ARG_OF_PERICENTER":6.6145,"MEAN_ANOMALY":353.5241,"EPHEMERIS_TYPE":0,"CLASSIFICATION_TYPE":"U","NORAD_CAT_ID":21422,"ELEMENT_SET_NO":999,"REV_AT_EPOCH":86591,"BSTAR":0.0002001,"MEAN_MOTION_DOT":2.529e-5,"MEAN_MOTION_DDOT":0},{"OBJECT_NAME":"SL-14 R/B","OBJECT_ID":"1991-042B","EPOCH":"2026-03-27T18:53:19.692672","MEAN_MOTION":14.81847431,"ECCENTRICITY":0.0017128,"INCLINATION":82.4955,"RA_OF_ASC_NODE":203.2153,"ARG_OF_PERICENTER":176.7908,"MEAN_ANOMALY":183.3419,"EPHEMERIS_TYPE":0,"CLASSIFICATION_TYPE":"U","NORAD_CAT_ID":21423,"ELEMENT_SET_NO":999,"REV_AT_EPOCH":85575,"BSTAR":5.8169e-5,"MEAN_MOTION_DOT":4.84e-6,"MEAN_MOTION_DDOT":0},{"OBJECT_NAME":"ERS-1","OBJECT_ID":"1991-050A","EPOCH":"2026-03-27T18:28:58.303200","MEAN_MOTION":14.39462526,"ECCENTRICITY":0.0032638,"INCLINATION":98.7867,"RA_OF_ASC_NODE":105.4584,"ARG_OF_PERICENTER":147.058,"MEAN_ANOMALY":213.265,"EPHEMERIS_TYPE":0,"CLASSIFICATION_TYPE":"U","NORAD_CAT_ID":21574,"ELEMENT_SET_NO":999,"REV_AT_EPOCH":81833,"BSTAR":0.00010945,"MEAN_MOTION_DOT":2.97e-6,"MEAN_MOTION_DDOT":0},{"OBJECT_NAME":"ARIANE 40 R/B","OBJECT_ID":"1991-050F","EPOCH":"2026-03-27T20:20:15.493920","MEAN_MOTION":14.42906365,"ECCENTRICITY":0.0003602,"INCLINATION":98.1975,"RA_OF_ASC_NODE":138.3992,"ARG_OF_PERICENTER":40.1291,"MEAN_ANOMALY":320.0165,"EPHEMERIS_TYPE":0,"CLASSIFICATION_TYPE":"U","NORAD_CAT_ID":21610,"ELEMENT_SET_NO":999,"REV_AT_EPOCH":82161,"BSTAR":9.8684e-5,"MEAN_MOTION_DOT":2.88e-6,"MEAN_MOTION_DDOT":0},{"OBJECT_NAME":"INTERCOSMOS 25","OBJECT_ID":"1991-086A","EPOCH":"2026-03-27T19:38:06.475200","MEAN_MOTION":12.12059081,"ECCENTRICITY":0.1486563,"INCLINATION":82.6016,"RA_OF_ASC_NODE":299.0489,"ARG_OF_PERICENTER":77.8733,"MEAN_ANOMALY":298.4445,"EPHEMERIS_TYPE":0,"CLASSIFICATION_TYPE":"U","NORAD_CAT_ID":21819,"ELEMENT_SET_NO":999,"REV_AT_EPOCH":49888,"BSTAR":0.00028854,"MEAN_MOTION_DOT":1.507e-5,"MEAN_MOTION_DDOT":0},{"OBJECT_NAME":"SL-8 R/B","OBJECT_ID":"1992-008B","EPOCH":"2026-03-27T20:07:18.537600","MEAN_MOTION":13.75969593,"ECCENTRICITY":0.0035947,"INCLINATION":82.9232,"RA_OF_ASC_NODE":254.2737,"ARG_OF_PERICENTER":84.391,"MEAN_ANOMALY":26.551,"EPHEMERIS_TYPE":0,"CLASSIFICATION_TYPE":"U","NORAD_CAT_ID":21876,"ELEMENT_SET_NO":999,"REV_AT_EPOCH":71191,"BSTAR":1.726e-5,"MEAN_MOTION_DOT":3.2e-7,"MEAN_MOTION_DDOT":0},{"OBJECT_NAME":"SL-8 R/B","OBJECT_ID":"1992-020B","EPOCH":"2026-03-27T16:04:51.060288","MEAN_MOTION":13.75550507,"ECCENTRICITY":0.0027734,"INCLINATION":82.9306,"RA_OF_ASC_NODE":140.4118,"ARG_OF_PERICENTER":246.2308,"MEAN_ANOMALY":230.4762,"EPHEMERIS_TYPE":0,"CLASSIFICATION_TYPE":"U","NORAD_CAT_ID":21938,"ELEMENT_SET_NO":999,"REV_AT_EPOCH":70360,"BSTAR":1.8235e-5,"MEAN_MOTION_DOT":3.3e-7,"MEAN_MOTION_DDOT":0},{"OBJECT_NAME":"USA 81","OBJECT_ID":"1992-023A","EPOCH":"2026-03-27T19:43:21.435168","MEAN_MOTION":14.32373634,"ECCENTRICITY":0.0001822,"INCLINATION":85.0049,"RA_OF_ASC_NODE":120.9773,"ARG_OF_PERICENTER":68.0453,"MEAN_ANOMALY":292.0934,"EPHEMERIS_TYPE":0,"CLASSIFICATION_TYPE":"U","NORAD_CAT_ID":21949,"ELEMENT_SET_NO":999,"REV_AT_EPOCH":9738,"BSTAR":5.6068e-5,"MEAN_MOTION_DOT":1.71e-6,"MEAN_MOTION_DDOT":0},{"OBJECT_NAME":"COSMOS 2219","OBJECT_ID":"1992-076A","EPOCH":"2026-03-27T20:12:41.430816","MEAN_MOTION":14.14091148,"ECCENTRICITY":0.0017961,"INCLINATION":71.0625,"RA_OF_ASC_NODE":340.1253,"ARG_OF_PERICENTER":180.5059,"MEAN_ANOMALY":179.6049,"EPHEMERIS_TYPE":0,"CLASSIFICATION_TYPE":"U","NORAD_CAT_ID":22219,"ELEMENT_SET_NO":999,"REV_AT_EPOCH":72094,"BSTAR":-0.0001032,"MEAN_MOTION_DOT":-2.44e-6,"MEAN_MOTION_DDOT":0},{"OBJECT_NAME":"SL-16 R/B","OBJECT_ID":"1992-076B","EPOCH":"2026-03-27T15:34:16.001184","MEAN_MOTION":14.16863988,"ECCENTRICITY":0.0010668,"INCLINATION":71,"RA_OF_ASC_NODE":150.5463,"ARG_OF_PERICENTER":62.7327,"MEAN_ANOMALY":99.9266,"EPHEMERIS_TYPE":0,"CLASSIFICATION_TYPE":"U","NORAD_CAT_ID":22220,"ELEMENT_SET_NO":999,"REV_AT_EPOCH":72437,"BSTAR":-9.3498e-6,"MEAN_MOTION_DOT":-6.7e-7,"MEAN_MOTION_DDOT":0},{"OBJECT_NAME":"COSMOS 2221","OBJECT_ID":"1992-080A","EPOCH":"2026-03-27T19:51:52.934400","MEAN_MOTION":14.9627326,"ECCENTRICITY":0.0015437,"INCLINATION":82.5007,"RA_OF_ASC_NODE":261.7013,"ARG_OF_PERICENTER":128.5239,"MEAN_ANOMALY":231.7369,"EPHEMERIS_TYPE":0,"CLASSIFICATION_TYPE":"U","NORAD_CAT_ID":22236,"ELEMENT_SET_NO":999,"REV_AT_EPOCH":78350,"BSTAR":0.00021372,"MEAN_MOTION_DOT":2.444e-5,"MEAN_MOTION_DDOT":0},{"OBJECT_NAME":"SL-16 R/B","OBJECT_ID":"1992-093B","EPOCH":"2026-03-27T19:56:42.431424","MEAN_MOTION":14.15454031,"ECCENTRICITY":0.0006467,"INCLINATION":71.0231,"RA_OF_ASC_NODE":326.185,"ARG_OF_PERICENTER":276.0364,"MEAN_ANOMALY":84.0022,"EPHEMERIS_TYPE":0,"CLASSIFICATION_TYPE":"U","NORAD_CAT_ID":22285,"ELEMENT_SET_NO":999,"REV_AT_EPOCH":71572,"BSTAR":0.00014081,"MEAN_MOTION_DOT":2.27e-6,"MEAN_MOTION_DDOT":0},{"OBJECT_NAME":"COSMOS 2228","OBJECT_ID":"1992-094A","EPOCH":"2026-03-27T19:57:59.330880","MEAN_MOTION":14.97280097,"ECCENTRICITY":0.0016792,"INCLINATION":82.5183,"RA_OF_ASC_NODE":219.9392,"ARG_OF_PERICENTER":238.4603,"MEAN_ANOMALY":121.4981,"EPHEMERIS_TYPE":0,"CLASSIFICATION_TYPE":"U","NORAD_CAT_ID":22286,"ELEMENT_SET_NO":999,"REV_AT_EPOCH":77877,"BSTAR":0.00023481,"MEAN_MOTION_DOT":2.753e-5,"MEAN_MOTION_DDOT":0},{"OBJECT_NAME":"SL-16 R/B","OBJECT_ID":"1993-016B","EPOCH":"2026-03-27T14:10:24.231072","MEAN_MOTION":14.15305364,"ECCENTRICITY":0.0012336,"INCLINATION":71.0078,"RA_OF_ASC_NODE":177.5868,"ARG_OF_PERICENTER":291.0065,"MEAN_ANOMALY":68.9738,"EPHEMERIS_TYPE":0,"CLASSIFICATION_TYPE":"U","NORAD_CAT_ID":22566,"ELEMENT_SET_NO":999,"REV_AT_EPOCH":70470,"BSTAR":-1.6982e-5,"MEAN_MOTION_DOT":-8.1e-7,"MEAN_MOTION_DDOT":0},{"OBJECT_NAME":"COSMOS 2242","OBJECT_ID":"1993-024A","EPOCH":"2026-03-27T19:43:38.478432","MEAN_MOTION":14.96623881,"ECCENTRICITY":0.0015035,"INCLINATION":82.5161,"RA_OF_ASC_NODE":249.3676,"ARG_OF_PERICENTER":241.989,"MEAN_ANOMALY":117.9812,"EPHEMERIS_TYPE":0,"CLASSIFICATION_TYPE":"U","NORAD_CAT_ID":22626,"ELEMENT_SET_NO":999,"REV_AT_EPOCH":78310,"BSTAR":0.00016905,"MEAN_MOTION_DOT":1.955e-5,"MEAN_MOTION_DDOT":0}]
